H1 CPF 01  gfz 2022 06 01 12  6522 terrasarx 
H2 0702601  6201 31698    2022 06 01 12 59 42 2022 06 06 00 00 42   120 1 1  0 0 0
H9
10 0 59731  63342.000000  0   -3095817.516    459268.527  -6143493.671
10 0 59731  63462.000000  0   -2258051.785    617982.355  -6485285.255
10 0 59731  63582.000000  0   -1378607.563    750962.628  -6713902.680
10 0 59731  63702.000000  0    -473208.927    855319.577  -6825412.373
10 0 59731  63822.000000  0     441943.306    928937.104  -6817896.020
10 0 59731  63942.000000  0    1350453.047    970513.008  -6691481.180
10 0 59731  64062.000000  0    2236016.896    979581.594  -6448341.459
10 0 59731  64182.000000  0    3082711.146    956518.022  -6092662.908
10 0 59731  64302.000000  0    3875274.084    902524.058  -5630578.456
10 0 59731  64422.000000  0    4599378.927    819594.969  -5070072.557
10 0 59731  64542.000000  0    5241895.660    710468.760  -4420855.156
10 0 59731  64662.000000  0    5791135.997    578558.347  -3694203.872
10 0 59731  64782.000000  0    6237075.116    427867.132  -2902776.874
10 0 59731  64902.000000  0    6571546.495    262890.330  -2060399.153
10 0 59731  65022.000000  0    6788405.326     88503.333  -1181823.054
10 0 59731  65142.000000  0    6883652.735    -90159.947   -282467.436
10 0 59731  65262.000000  0    6855518.876   -267835.461    621857.331
10 0 59731  65382.000000  0    6704502.895   -439262.038   1515234.686
10 0 59731  65502.000000  0    6433366.928   -599314.844   2381930.868
10 0 59731  65622.000000  0    6047083.726   -743135.929   3206681.871
10 0 59731  65742.000000  0    5552738.609   -866258.282   3974969.057
10 0 59731  65862.000000  0    4959392.414   -964720.316   4673279.141
10 0 59731  65982.000000  0    4277905.192  -1035168.962   5289344.513
10 0 59731  66102.000000  0    3520726.842  -1074946.492   5812357.254
10 0 59731  66222.000000  0    2701660.772  -1082161.209   6233154.988
10 0 59731  66342.000000  0    1835605.380  -1055740.636   6544375.651
10 0 59731  66462.000000  0     938278.732   -995466.132   6740581.285
10 0 59731  66582.000000  0      25929.673   -901987.538   6818347.385
10 0 59731  66702.000000  0    -884956.841   -776818.146   6776317.518
10 0 59731  66822.000000  0   -1777956.212   -622310.449   6615224.777
10 0 59731  66942.000000  0   -2636998.728   -441612.212   6337879.617
10 0 59731  67062.000000  0   -3446657.882   -238604.002   5949124.948
10 0 59731  67182.000000  0   -4192429.606    -17819.017   5455757.797
10 0 59731  67302.000000  0   -4860997.274    215653.484   4866416.754
10 0 59731  67422.000000  0   -5440476.677    456279.042   4191436.118
10 0 59731  67542.000000  0   -5920636.062    698201.793   3442668.377
10 0 59731  67662.000000  0   -6293085.944    935378.375   2633278.464
10 0 59731  67782.000000  0   -6551435.737   1161719.099   1777511.711
10 0 59731  67902.000000  0   -6691412.147   1371232.491    890439.584
10 0 59731  68022.000000  0   -6710936.425   1558170.248    -12312.734
10 0 59731  68142.000000  0   -6610156.241   1717168.583   -914850.751
10 0 59731  68262.000000  0   -6391432.118   1843381.569  -1801299.285
10 0 59731  68382.000000  0   -6059280.617   1932604.306  -2656089.355
10 0 59731  68502.000000  0   -5620274.141   1981382.787  -3464238.961
10 0 59731  68622.000000  0   -5082899.679   1987106.273  -4211619.360
10 0 59731  68742.000000  0   -4457382.502   1948080.862  -4885200.803
10 0 59731  68862.000000  0   -3755479.958   1863583.106  -5473274.277
10 0 59731  68982.000000  0   -2990251.590   1733893.042  -5965645.928
10 0 59731  69102.000000  0   -2175810.838   1560306.074  -6353803.735
10 0 59731  69222.000000  0   -1327061.132   1345123.774  -6631053.725
10 0 59731  69342.000000  0    -459423.941   1091623.791  -6792623.115
10 0 59731  69462.000000  0     411436.339    804010.035  -6835732.842
10 0 59731  69582.000000  0    1269887.289    487344.503  -6759641.183
10 0 59731  69702.000000  0    2100603.799    147459.917  -6565656.686
10 0 59731  69822.000000  0    2888835.531   -209144.833  -6257117.300
10 0 59731  69942.000000  0    3620665.096   -575424.720  -5839339.385
10 0 59731  70062.000000  0    4283251.402   -943923.036  -5319534.207
10 0 59731  70182.000000  0    4865056.733  -1306918.158  -4706695.854
10 0 59731  70302.000000  0    5356054.134  -1656581.251  -4011456.982
10 0 59731  70422.000000  0    5747909.073  -1985140.584  -3245914.125
10 0 59731  70542.000000  0    6034131.923  -2285049.810  -2423424.427
10 0 59731  70662.000000  0    6210196.766  -2549156.573  -1558376.039
10 0 59731  70782.000000  0    6273622.892  -2770866.822   -665936.550
10 0 59731  70902.000000  0    6224017.158  -2944301.087    238216.204
10 0 59731  71022.000000  0    6063074.825  -3064438.456   1138175.717
10 0 59731  71142.000000  0    5794539.068  -3127244.409   2018095.667
10 0 59731  71262.000000  0    5424116.631  -3129778.635   2862478.530
10 0 59731  71382.000000  0    4959355.059  -3070280.332   3656456.395
10 0 59731  71502.000000  0    4409483.541  -2948227.510   4386058.301
10 0 59731  71622.000000  0    3785224.250  -2764371.626   5038458.855
10 0 59731  71742.000000  0    3098574.978  -2520745.920   5602205.367
10 0 59731  71862.000000  0    2362570.422  -2220645.738   6067415.684
10 0 59731  71982.000000  0    1591029.056  -1868583.634   6425946.483
10 0 59731  72102.000000  0     798289.559  -1470220.058   6671529.988
10 0 59731  72222.000000  0      -1058.186  -1032270.526   6799877.390
10 0 59731  72342.000000  0    -792441.786   -562390.998   6808748.451
10 0 59731  72462.000000  0   -1561570.758    -69043.976   6697987.554
10 0 59731  72582.000000  0   -2294693.384    438653.513   6469526.329
10 0 59731  72702.000000  0   -2978841.962    951097.608   6127352.468
10 0 59731  72822.000000  0   -3602063.162   1458378.136   5677444.952
10 0 59731  72942.000000  0   -4153630.380   1950469.405   5127676.204
10 0 59731  73062.000000  0   -4624234.555   2417428.536   4487680.904
10 0 59731  73182.000000  0   -5006148.369   2849597.376   3768691.245
10 0 59731  73302.000000  0   -5293359.745   3237803.009   2983342.471
10 0 59731  73422.000000  0   -5481673.095   3573553.044   2145451.894
10 0 59731  73542.000000  0   -5568775.731   3849222.118   1269773.805
10 0 59731  73662.000000  0   -5554266.192   4058223.081    371733.137
10 0 59731  73782.000000  0   -5439642.883   4195158.367   -532853.814
10 0 59731  73902.000000  0   -5228255.373   4255948.672  -1428066.447
10 0 59731  74022.000000  0   -4925217.959   4237935.531  -2298169.957
10 0 59731  74142.000000  0   -4537286.410   4139953.141  -3127900.309
10 0 59731  74262.000000  0   -4072703.511   3962369.312  -3902736.473
10 0 59731  74382.000000  0   -3541017.752   3707095.076  -4609154.741
10 0 59731  74502.000000  0   -2952880.517   3377563.870  -5234860.599
10 0 59731  74622.000000  0   -2319828.640   2978681.377  -5768994.532
10 0 59731  74742.000000  0   -1654055.371   2516748.175  -6202311.995
10 0 59731  74862.000000  0    -968173.686   1999355.016  -6527332.426
10 0 59731  74982.000000  0    -274979.079   1435255.433  -6738456.269
10 0 59731  75102.000000  0     412784.966    834217.372  -6832051.350
10 0 59731  75222.000000  0    1082655.055    206856.788  -6806509.320
10 0 59731  75342.000000  0    1722669.614   -435546.344  -6662270.903
10 0 59731  75462.000000  0    2321577.131  -1081246.062  -6401817.636
10 0 59731  75582.000000  0    2869030.104  -1718239.591  -6029634.207
10 0 59731  75702.000000  0    3355762.091  -2334484.775  -5552139.311
10 0 59731  75822.000000  0    3773746.664  -2918124.933  -4977587.428
10 0 59731  75942.000000  0    4116334.142  -3457717.494  -4315935.986
10 0 59731  76062.000000  0    4378361.286  -3942458.716  -3578682.420
10 0 59731  76182.000000  0    4556235.283  -4362402.509  -2778674.130
10 0 59731  76302.000000  0    4647988.812  -4708668.707  -1929890.253
10 0 59731  76422.000000  0    4653303.576  -4973635.468  -1047199.405
10 0 59731  76542.000000  0    4573500.142  -5151110.570   -146096.522
10 0 59731  76662.000000  0    4411494.264  -5236475.498    757574.816
10 0 59731  76782.000000  0    4171721.325  -5226799.723   1647908.852
10 0 59731  76902.000000  0    3860028.668  -5120920.208   2509227.332
10 0 59731  77022.000000  0    3483539.693  -4919485.658   3326363.149
10 0 59731  77142.000000  0    3050493.759  -4624964.205   4084934.599
10 0 59731  77262.000000  0    2570065.463  -4241613.446   4771602.802
10 0 59731  77382.000000  0    2052168.615  -3775414.748   5374307.816
10 0 59731  77502.000000  0    1507249.338  -3233974.049   5882479.244
10 0 59731  77622.000000  0     946072.619  -2626390.483   6287217.867
10 0 59731  77742.000000  0     379507.937  -1963097.887   6581445.099
10 0 59731  77862.000000  0    -181681.768  -1255681.930   6760019.882
10 0 59731  77982.000000  0    -727043.428   -516675.844   6819823.826
10 0 59731  78102.000000  0   -1246627.418    240662.801   6759812.235
10 0 59731  78222.000000  0   -1731168.482   1002589.551   6581031.028
10 0 59731  78342.000000  0   -2172250.549   1755121.617   6286599.533
10 0 59731  78462.000000  0   -2562453.570   2484293.612   5881659.543
10 0 59731  78582.000000  0   -2895479.563   3176417.234   5373291.218
10 0 59731  78702.000000  0   -3166256.967   3818340.381   4770396.007
10 0 59731  78822.000000  0   -3371020.995   4397701.461   4083546.755
10 0 59731  78942.000000  0   -3507367.530   4903173.667   3324806.508
10 0 59731  79062.000000  0   -3574279.301   5324693.759   2507517.982
10 0 59731  79182.000000  0   -3572123.460   5653668.940   1646066.915
10 0 59731  79302.000000  0   -3502620.310   5883156.342    755625.005
10 0 59731  79422.000000  0   -3368784.889   6008013.584   -148122.860
10 0 59731  79542.000000  0   -3174841.317   6025013.891  -1049264.370
10 0 59731  79662.000000  0   -2926112.566   5932921.453  -1931950.552
10 0 59731  79782.000000  0   -2628886.248   5732524.496  -2780684.506
99
